[Satellite]
VERSION=1.1
NAME=CHINASAT 5A (ZX 5A)
NICKNAME=CHINASAT 5A (ZX 5A)
TLE1=1 25354U 98033A   15055.39312075 -.00000293  00000-0  00000+0 0  9992
TLE2=2 25354   0.0371 276.0734 0001340   2.4228 158.9003  1.00268194 65836
